[{"OBJECT_NAME":"STARLINK-5476","OBJECT_ID":"2023-094AS","EPOCH":"2026-03-09T23:19:37.414848","MEAN_MOTION":15.02881176,"ECCENTRICITY":0.00018758,"INCLINATION":43.0065,"RA_OF_ASC_NODE":15.6796,"ARG_OF_PERICENTER":298.9016,"MEAN_ANOMALY":61.1638,"EPHEMERIS_TYPE":0,"CLASSIFICATION_TYPE":"U","NORAD_CAT_ID":57258,"ELEMENT_SET_NO":999,"REV_AT_EPOCH":14731,"BSTAR":0.0029468621,"MEAN_MOTION_DOT":0.00040201,"MEAN_MOTION_DDOT":0},{"OBJECT_NAME":"UNKNOWN","OBJECT_ID":"","EPOCH":"2026-03-09T02:53:57.432768","MEAN_MOTION":15.04852502,"ECCENTRICITY":0.0007482,"INCLINATION":86.6587,"RA_OF_ASC_NODE":118.2618,"ARG_OF_PERICENTER":183.1315,"MEAN_ANOMALY":176.9875,"EPHEMERIS_TYPE":0,"CLASSIFICATION_TYPE":"U","NORAD_CAT_ID":82402,"ELEMENT_SET_NO":999,"REV_AT_EPOCH":46745,"BSTAR":0.00051144,"MEAN_MOTION_DOT":7.26e-5,"MEAN_MOTION_DDOT":0}]
